CCSDS_OMM_VERS = 2.0
CREATION_DATE  = 
ORIGINATOR     = 

OBJECT_NAME    = SL-3 R/B
OBJECT_ID      = 1988-032B
CENTER_NAME    = EARTH
REF_FRAME      = TEME
TIME_SYSTEM    = UTC
MEAN_ELEMENT_THEORY = SGP/SGP4

EPOCH          = 2026-03-24T11:29:37.209696
MEAN_MOTION    = 15.20069216
ECCENTRICITY   = .0025855
INCLINATION    = 97.5215
RA_OF_ASC_NODE = 66.6813
ARG_OF_PERICENTER = 178.2521
MEAN_ANOMALY   = 181.8808

EPHEMERIS_TYPE = 0
CLASSIFICATION_TYPE = U
NORAD_CAT_ID   = 19046
ELEMENT_SET_NO = 999
REV_AT_EPOCH   = 5435
BSTAR          = .22606E-3
MEAN_MOTION_DOT = .485E-4
MEAN_MOTION_DDOT = 0

CCSDS_OMM_VERS = 2.0
CREATION_DATE  = 
ORIGINATOR     = 

OBJECT_NAME    = SL-16 R/B
OBJECT_ID      = 1988-039B
CENTER_NAME    = EARTH
REF_FRAME      = TEME
TIME_SYSTEM    = UTC
MEAN_ELEMENT_THEORY = SGP/SGP4

EPOCH          = 2026-03-24T05:07:48.184032
MEAN_MOTION    = 14.19617815
ECCENTRICITY   = .0023457
INCLINATION    = 71.0159
RA_OF_ASC_NODE = 37.8346
ARG_OF_PERICENTER = 313.4389
MEAN_ANOMALY   = 46.4784

EPHEMERIS_TYPE = 0
CLASSIFICATION_TYPE = U
NORAD_CAT_ID   = 19120
ELEMENT_SET_NO = 999
REV_AT_EPOCH   = 96044
BSTAR          = .17069E-4
MEAN_MOTION_DOT = -.12E-6
MEAN_MOTION_DDOT = 0

CCSDS_OMM_VERS = 2.0
CREATION_DATE  = 
ORIGINATOR     = 

OBJECT_NAME    = COSMOS 1953
OBJECT_ID      = 1988-050A
CENTER_NAME    = EARTH
REF_FRAME      = TEME
TIME_SYSTEM    = UTC
MEAN_ELEMENT_THEORY = SGP/SGP4

EPOCH          = 2026-03-24T10:04:02.186400
MEAN_MOTION    = 15.28755724
ECCENTRICITY   = .0012518
INCLINATION    = 82.5081
RA_OF_ASC_NODE = 143.4314
ARG_OF_PERICENTER = 76.5678
MEAN_ANOMALY   = 283.6956

EPHEMERIS_TYPE = 0
CLASSIFICATION_TYPE = U
NORAD_CAT_ID   = 19210
ELEMENT_SET_NO = 999
REV_AT_EPOCH   = 4003
BSTAR          = .22858E-3
MEAN_MOTION_DOT = .6435E-4
MEAN_MOTION_DDOT = 0

CCSDS_OMM_VERS = 2.0
CREATION_DATE  = 
ORIGINATOR     = 

OBJECT_NAME    = SL-8 R/B
OBJECT_ID      = 1988-053B
CENTER_NAME    = EARTH
REF_FRAME      = TEME
TIME_SYSTEM    = UTC
MEAN_ELEMENT_THEORY = SGP/SGP4

EPOCH          = 2026-03-24T11:38:27.061152
MEAN_MOTION    = 14.38925664
ECCENTRICITY   = .0021522
INCLINATION    = 74.0451
RA_OF_ASC_NODE = 85.1913
ARG_OF_PERICENTER = 262.5429
MEAN_ANOMALY   = 261.1004

EPHEMERIS_TYPE = 0
CLASSIFICATION_TYPE = U
NORAD_CAT_ID   = 19257
ELEMENT_SET_NO = 999
REV_AT_EPOCH   = 97872
BSTAR          = .11157E-3
MEAN_MOTION_DOT = .318E-5
MEAN_MOTION_DDOT = 0

CCSDS_OMM_VERS = 2.0
CREATION_DATE  = 
ORIGINATOR     = 

OBJECT_NAME    = COSMOS 1975
OBJECT_ID      = 1988-093A
CENTER_NAME    = EARTH
REF_FRAME      = TEME
TIME_SYSTEM    = UTC
MEAN_ELEMENT_THEORY = SGP/SGP4

EPOCH          = 2026-03-24T10:59:13.567488
MEAN_MOTION    = 15.28263221
ECCENTRICITY   = .0013242
INCLINATION    = 82.5167
RA_OF_ASC_NODE = 102.8551
ARG_OF_PERICENTER = 115.7677
MEAN_ANOMALY   = 244.4931

EPHEMERIS_TYPE = 0
CLASSIFICATION_TYPE = U
NORAD_CAT_ID   = 19573
ELEMENT_SET_NO = 999
REV_AT_EPOCH   = 2166
BSTAR          = .22699E-3
MEAN_MOTION_DOT = .6297E-4
MEAN_MOTION_DDOT = 0

CCSDS_OMM_VERS = 2.0
CREATION_DATE  = 
ORIGINATOR     = 

OBJECT_NAME    = SL-14 R/B
OBJECT_ID      = 1988-093B
CENTER_NAME    = EARTH
REF_FRAME      = TEME
TIME_SYSTEM    = UTC
MEAN_ELEMENT_THEORY = SGP/SGP4

EPOCH          = 2026-03-24T05:18:33.939360
MEAN_MOTION    = 14.85673352
ECCENTRICITY   = .0020525
INCLINATION    = 82.5333
RA_OF_ASC_NODE = 28.4039
ARG_OF_PERICENTER = 354.6351
MEAN_ANOMALY   = 125.4614

EPHEMERIS_TYPE = 0
CLASSIFICATION_TYPE = U
NORAD_CAT_ID   = 19574
ELEMENT_SET_NO = 999
REV_AT_EPOCH   = 317
BSTAR          = .662E-4
MEAN_MOTION_DOT = .6E-5
MEAN_MOTION_DDOT = 0

CCSDS_OMM_VERS = 2.0
CREATION_DATE  = 
ORIGINATOR     = 

OBJECT_NAME    = SL-16 R/B
OBJECT_ID      = 1988-102B
CENTER_NAME    = EARTH
REF_FRAME      = TEME
TIME_SYSTEM    = UTC
MEAN_ELEMENT_THEORY = SGP/SGP4

EPOCH          = 2026-03-24T09:14:28.708800
MEAN_MOTION    = 14.16154852
ECCENTRICITY   = .0014933
INCLINATION    = 70.9980
RA_OF_ASC_NODE = 120.5774
ARG_OF_PERICENTER = 339.1000
MEAN_ANOMALY   = 20.9511

EPHEMERIS_TYPE = 0
CLASSIFICATION_TYPE = U
NORAD_CAT_ID   = 19650
ELEMENT_SET_NO = 999
REV_AT_EPOCH   = 92897
BSTAR          = -.96129E-4
MEAN_MOTION_DOT = -.238E-5
MEAN_MOTION_DDOT = 0

CCSDS_OMM_VERS = 2.0
CREATION_DATE  = 
ORIGINATOR     = 

OBJECT_NAME    = INTERCOSMOS 24
OBJECT_ID      = 1989-080A
CENTER_NAME    = EARTH
REF_FRAME      = TEME
TIME_SYSTEM    = UTC
MEAN_ELEMENT_THEORY = SGP/SGP4

EPOCH          = 2026-03-24T10:01:45.178464
MEAN_MOTION    = 12.59577279
ECCENTRICITY   = .1186772
INCLINATION    = 82.6013
RA_OF_ASC_NODE = 94.8104
ARG_OF_PERICENTER = 258.6018
MEAN_ANOMALY   = 87.9736

EPHEMERIS_TYPE = 0
CLASSIFICATION_TYPE = U
NORAD_CAT_ID   = 20261
ELEMENT_SET_NO = 999
REV_AT_EPOCH   = 66865
BSTAR          = .16295E-3
MEAN_MOTION_DOT = .549E-5
MEAN_MOTION_DDOT = 0

CCSDS_OMM_VERS = 2.0
CREATION_DATE  = 
ORIGINATOR     = 

OBJECT_NAME    = SL-14 R/B
OBJECT_ID      = 1989-080C
CENTER_NAME    = EARTH
REF_FRAME      = TEME
TIME_SYSTEM    = UTC
MEAN_ELEMENT_THEORY = SGP/SGP4

EPOCH          = 2026-03-24T12:27:54.772416
MEAN_MOTION    = 12.50508212
ECCENTRICITY   = .1230866
INCLINATION    = 82.5964
RA_OF_ASC_NODE = 163.6703
ARG_OF_PERICENTER = 150.8692
MEAN_ANOMALY   = 216.7189

EPHEMERIS_TYPE = 0
CLASSIFICATION_TYPE = U
NORAD_CAT_ID   = 20262
ELEMENT_SET_NO = 999
REV_AT_EPOCH   = 66200
BSTAR          = .11748E-3
MEAN_MOTION_DOT = .416E-5
MEAN_MOTION_DDOT = 0

CCSDS_OMM_VERS = 2.0
CREATION_DATE  = 
ORIGINATOR     = 

OBJECT_NAME    = DELTA 1 R/B
OBJECT_ID      = 1989-089B
CENTER_NAME    = EARTH
REF_FRAME      = TEME
TIME_SYSTEM    = UTC
MEAN_ELEMENT_THEORY = SGP/SGP4

EPOCH          = 2026-03-24T12:28:09.208992
MEAN_MOTION    = 14.50674837
ECCENTRICITY   = .0070657
INCLINATION    = 97.0694
RA_OF_ASC_NODE = 288.5982
ARG_OF_PERICENTER = 76.0573
MEAN_ANOMALY   = 284.8471

EPHEMERIS_TYPE = 0
CLASSIFICATION_TYPE = U
NORAD_CAT_ID   = 20323
ELEMENT_SET_NO = 999
REV_AT_EPOCH   = 89788
BSTAR          = .85568E-4
MEAN_MOTION_DOT = .312E-5
MEAN_MOTION_DDOT = 0

CCSDS_OMM_VERS = 2.0
CREATION_DATE  = 
ORIGINATOR     = 

OBJECT_NAME    = ARIANE 40 R/B
OBJECT_ID      = 1990-005H
CENTER_NAME    = EARTH
REF_FRAME      = TEME
TIME_SYSTEM    = UTC
MEAN_ELEMENT_THEORY = SGP/SGP4

EPOCH          = 2026-03-24T09:45:31.724352
MEAN_MOTION    = 14.39879774
ECCENTRICITY   = .0010764
INCLINATION    = 98.3053
RA_OF_ASC_NODE = 143.6274
ARG_OF_PERICENTER = 154.8964
MEAN_ANOMALY   = 205.2750

EPHEMERIS_TYPE = 0
CLASSIFICATION_TYPE = U
NORAD_CAT_ID   = 20443
ELEMENT_SET_NO = 999
REV_AT_EPOCH   = 89492
BSTAR          = .1E-3
MEAN_MOTION_DOT = .272E-5
MEAN_MOTION_DDOT = 0

CCSDS_OMM_VERS = 2.0
CREATION_DATE  = 
ORIGINATOR     = 

OBJECT_NAME    = DELTA 2 R/B(1)
OBJECT_ID      = 1990-008B
CENTER_NAME    = EARTH
REF_FRAME      = TEME
TIME_SYSTEM    = UTC
MEAN_ELEMENT_THEORY = SGP/SGP4

EPOCH          = 2026-03-23T06:57:55.734624
MEAN_MOTION    = 15.57716328
ECCENTRICITY   = .00799445
INCLINATION    = 35.6034
RA_OF_ASC_NODE = 85.4758
ARG_OF_PERICENTER = 25.1791
MEAN_ANOMALY   = 335.2813

EPHEMERIS_TYPE = 0
CLASSIFICATION_TYPE = U
NORAD_CAT_ID   = 20453
ELEMENT_SET_NO = 999
REV_AT_EPOCH   = 92825
BSTAR          = .82028965E-3
MEAN_MOTION_DOT = .73697E-3
MEAN_MOTION_DDOT = 0

